NORAD_CAT_ID,OBJECT_NAME,OBJECT_TYPE,EPOCH,MEAN_MOTION,ECCENTRICITY,INCLINATION,RA_OF_ASC_NODE,ARG_OF_PERICENTER,MEAN_ANOMALY,BSTAR,MEAN_MOTION_DOT,MEAN_MOTION_DDOT,TLE_LINE0,TLE_LINE1,TLE_LINE2,SEMIMAJOR_AXIS,PERIOD,APOGEE,PERIGEE,DECAYED
53267.0,STARLINK-4060,PAYLOAD,2024-07-13 19:21:00,15.08839687,0.0001358,53.2182,25.059,98.53,261.5846,2.2007e-05,6.2e-07,0.0,0 STARLINK-4060,1 53267U 22086AB  24195.80625554  .00000062  00000-0  22007-4 0  9990,2 53267  53.2182  25.0590 0001358  98.5300 261.5846 15.08839687109725,6917.881,95.438,540.686,538.807,0.0
53267.0,STARLINK-4060,PAYLOAD,2024-07-13 22:31:46,15.08843307,0.000129,53.2186,24.4643,97.3449,262.769,5.3881e-05,5.7e-06,0.0,0 STARLINK-4060,1 53267U 22086AB  24195.93873334  .00000570  00000-0  53881-4 0  9993,2 53267  53.2186  24.4643 0001290  97.3449 262.7690 15.08843307109923,6917.87,95.437,540.628,538.843,0.0
53267.0,STARLINK-4060,PAYLOAD,2024-07-14 12:50:14,15.08841051,0.0001414,53.2181,21.7885,97.6288,262.4865,0.00013293,1.828e-05,0.0,0 STARLINK-4060,1 53267U 22086AB  24196.53489359  .00001828  00000-0  13293-3 0  9999,2 53267  53.2181  21.7885 0001414  97.6288 262.4865 15.08841051110015,6917.877,95.437,540.72,538.764,0.0
53267.0,STARLINK-4060,PAYLOAD,2024-07-14 20:47:10,15.08845863,0.0001217,53.217,20.3029,86.3332,273.7799,0.00017696,2.53e-05,0.0,0 STARLINK-4060,1 53267U 22086AB  24196.86609290  .00002530  00000-0  17696-3 0  9995,2 53267  53.2170  20.3029 0001217  86.3332 273.7799 15.08845863110065,6917.862,95.437,540.569,538.886,0.0
53267.0,STARLINK-4060,PAYLOAD,2024-07-15 04:44:05,15.08860076,0.0001171,53.2173,18.8162,85.0755,275.0371,0.00030853,4.628e-05,0.0,0 STARLINK-4060,1 53267U 22086AB  24197.19728379  .00004628  00000-0  30853-3 0  9992,2 53267  53.2173  18.8162 0001171  85.0755 275.0371 15.08860076109930,6917.819,95.436,540.494,538.874,0.0
53267.0,STARLINK-4060,PAYLOAD,2024-07-15 12:41:02,15.0882487,0.0001383,53.218,17.3289,93.5294,266.5857,-0.00016274,-2.876e-05,0.0,0 STARLINK-4060,1 53267U 22086AB  24197.52850238 -.00002876  00000-0 -16274-3 0  9995,2 53267  53.2180  17.3289 0001383  93.5294 266.5857 15.08824870109980,6917.927,95.439,540.748,538.835,0.0
53267.0,STARLINK-4060,PAYLOAD,2024-07-15 19:02:34,15.08835387,0.0001323,53.2178,16.1388,92.1113,268.0031,4.7042e-05,4.61e-06,0.0,0 STARLINK-4060,1 53267U 22086AB  24197.79346010  .00000461  00000-0  47042-4 0  9996,2 53267  53.2178  16.1388 0001323  92.1113 268.0031 15.08835387110026,6917.894,95.438,540.675,538.844,0.0
53267.0,STARLINK-4060,PAYLOAD,2024-07-15 22:13:20,15.08837803,0.0001359,53.218,15.5441,90.293,269.8218,6.3179e-05,7.18e-06,0.0,0 STARLINK-4060,1 53267U 22086AB  24197.92593730  .00000718  00000-0  63179-4 0  9998,2 53267  53.2180  15.5441 0001359  90.2930 269.8218 15.08837803110220,6917.887,95.438,540.692,538.812,0.0
53267.0,STARLINK-4060,PAYLOAD,2024-07-16 04:34:53,15.08851204,0.0001425,53.2193,14.3558,94.1573,265.9582,0.00041305,6.294e-05,0.0,0 STARLINK-4060,1 53267U 22086AB  24198.19089294  .00006294  00000-0  41305-3 0  9994,2 53267  53.2193  14.3558 0001425  94.1573 265.9582 15.08851204110086,6917.846,95.437,540.697,538.725,0.0
53267.0,STARLINK-4060,PAYLOAD,2024-07-16 10:56:26,15.08853177,0.0002528,53.2179,13.1656,83.8008,276.3272,0.00061762,9.559e-05,0.0,0 STARLINK-4060,1 53267U 22086AB  24198.45585775  .00009559  00000-0  61762-3 0  9994,2 53267  53.2179  13.1656 0002528  83.8008 276.3272 15.08853177110307,6917.84,95.437,541.454,537.956,0.0
53267.0,STARLINK-4060,PAYLOAD,2024-07-16 18:53:21,15.08843287,0.0001453,53.2184,11.68,107.6026,252.5125,0.00039217,5.959e-05,0.0,0 STARLINK-4060,1 53267U 22086AB  24198.78705748  .00005959  00000-0  39217-3 0  9994,2 53267  53.2184  11.6800 0001453 107.6026 252.5125 15.08843287110177,6917.87,95.437,540.741,538.73,0.0
53267.0,STARLINK-4060,PAYLOAD,2024-07-17 04:25:40,15.08862511,0.000126,53.2178,9.8936,73.1491,286.9639,0.00094231,0.0001475,0.0,0 STARLINK-4060,1 53267U 22086AB  24199.18449219  .00014750  00000-0  94231-3 0  9993,2 53267  53.2178   9.8936 0001260  73.1491 286.9639 15.08862511110237,6917.812,95.436,540.548,538.805,0.0
53267.0,STARLINK-4060,PAYLOAD,2024-07-17 10:47:13,15.08831458,0.0001685,53.2172,8.7053,87.1597,272.9588,-0.00021582,-3.72e-05,0.0,0 STARLINK-4060,1 53267U 22086AB  24199.44945807 -.00003720  00000-0 -21582-3 0  9992,2 53267  53.2172   8.7053 0001685  87.1597 272.9588 15.08831458110270,6917.906,95.438,540.937,538.606,0.0
53267.0,STARLINK-4060,PAYLOAD,2024-07-17 18:44:09,15.08833507,0.0001104,53.218,7.2193,74.7457,285.3657,0.0018056,0.0002856,0.0,0 STARLINK-4060,1 53267U 22086AB  24199.78066067  .00028560  00000-0  18056-2 0  9999,2 53267  53.2180   7.2193 0001104  74.7457 285.3657 15.08833507110509,6917.9,95.438,540.529,539.001,0.0
53267.0,STARLINK-4060,PAYLOAD,2024-07-18 04:16:28,15.08820195,0.0001077,53.2188,5.4379,75.1179,284.9932,5.1305e-05,5.28e-06,0.0,0 STARLINK-4060,1 53267U 22086AB  24200.17810581  .00000528  00000-0  51305-4 0  9993,2 53267  53.2188   5.4379 0001077  75.1179 284.9932 15.08820195110564,6917.941,95.439,540.551,539.061,0.0
53267.0,STARLINK-4060,PAYLOAD,2024-07-18 18:34:55,15.08850201,0.0001105,53.219,2.7557,95.7902,264.3217,0.00011178,1.492e-05,0.0,0 STARLINK-4060,1 53267U 22086AB  24200.77425658  .00001492  00000-0  11178-3 0  9990,2 53267  53.2190   2.7557 0001105  95.7902 264.3217 15.08850201110478,6917.849,95.437,540.479,538.95,0.0
53267.0,STARLINK-4060,PAYLOAD,2024-07-19 10:28:47,15.0883542,0.0001438,53.2189,359.7857,77.2622,282.8531,0.00015317,2.15e-05,0.0,0 STARLINK-4060,1 53267U 22086AB  24201.43666444  .00002150  00000-0  15317-3 0  9995,2 53267  53.2189 359.7857 0001438  77.2622 282.8531 15.08835420110578,6917.894,95.438,540.754,538.765,0.0
53267.0,STARLINK-4060,PAYLOAD,2024-07-19 16:50:20,15.08832668,0.0001284,53.2193,358.5955,83.6545,276.4594,0.00011993,1.621e-05,0.0,0 STARLINK-4060,1 53267U 22086AB  24201.70162706  .00001621  00000-0  11993-3 0  9995,2 53267  53.2193 358.5955 0001284  83.6545 276.4594 15.08832668110796,6917.903,95.438,540.656,538.88,0.0
53267.0,STARLINK-4060,PAYLOAD,2024-07-20 03:58:01,15.08845772,9.93e-05,53.22,356.5121,89.5407,270.5699,0.00017321,2.47e-05,0.0,0 STARLINK-4060,1 53267U 22086AB  24202.16529589  .00002470  00000-0  17321-3 0  9996,2 53267  53.2200 356.5121 0000993  89.5407 270.5699 15.08845772110685,6917.863,95.437,540.415,539.041,0.0
53267.0,STARLINK-4060,PAYLOAD,2024-07-20 13:30:21,15.08829294,0.0001116,53.2164,354.7307,87.9766,272.1354,-1.5535e-05,-5.35e-06,0.0,0 STARLINK-4060,1 53267U 22086AB  24202.56275415 -.00000535  00000-0 -15535-4 0  9994,2 53267  53.2164 354.7307 0001116  87.9766 272.1354 15.08829294110742,6917.913,95.438,540.55,539.006,0.0
53267.0,STARLINK-4060,PAYLOAD,2024-07-20 16:41:07,15.08833751,0.0001084,53.2176,354.1339,102.9332,257.1781,5.0968e-05,5.23e-06,0.0,0 STARLINK-4060,1 53267U 22086AB  24202.69522903  .00000523  00000-0  50968-4 0  9999,2 53267  53.2176 354.1339 0001084 102.9332 257.1781 15.08833751110947,6917.899,95.438,540.514,539.015,0.0
53267.0,STARLINK-4060,PAYLOAD,2024-07-21 13:21:08,15.08836934,0.000128,53.2185,350.2676,112.5844,247.5284,1.6426e-05,-2.6e-07,0.0,0 STARLINK-4060,1 53267U 22086AB  24203.55634787 -.00000026  00000-0  16426-4 0  9999,2 53267  53.2185 350.2676 0001280 112.5844 247.5284 15.08836934111073,6917.89,95.438,540.64,538.869,0.0
53267.0,STARLINK-4060,PAYLOAD,2024-07-21 16:31:54,15.0883768,0.000126,53.2193,349.6735,112.3062,247.8064,2.1353e-05,5.2e-07,0.0,0 STARLINK-4060,1 53267U 22086AB  24203.68882860  .00000052  00000-0  21353-4 0  9993,2 53267  53.2193 349.6735 0001260 112.3062 247.8064 15.08837680111098,6917.887,95.438,540.624,538.881,0.0
53267.0,STARLINK-4060,PAYLOAD,2024-07-22 10:01:09,15.08814095,0.0001264,53.2188,346.4017,113.7769,246.3355,0.00034706,5.236e-05,0.0,0 STARLINK-4060,1 53267U 22086AB  24204.41747319  .00005236  00000-0  34706-3 0  9998,2 53267  53.2188 346.4017 0001264 113.7769 246.3355 15.08814095111028,6917.96,95.439,540.699,538.95,0.0
53267.0,STARLINK-4060,PAYLOAD,2024-07-23 17:48:52,15.08834115,0.0001089,53.2188,340.4529,85.7062,274.4054,2.2868e-05,7.6e-07,0.0,0 STARLINK-4060,1 53267U 22086AB  24205.74227616  .00000076  00000-0  22868-4 0  9992,2 53267  53.2188 340.4529 0001089  85.7062 274.4054 15.08834115111224,6917.898,95.438,540.517,539.01,0.0
53267.0,STARLINK-4060,PAYLOAD,2024-07-24 08:07:20,15.08838741,0.0001196,53.2193,337.7798,104.5697,255.5428,1.1044e-05,-1.12e-06,0.0,0 STARLINK-4060,1 53267U 22086AB  24206.33843238 -.00000112  00000-0  11044-4 0  9998,2 53267  53.2193 337.7798 0001196 104.5697 255.5428 15.08838741111314,6917.884,95.438,540.577,538.922,0.0
53267.0,STARLINK-4060,PAYLOAD,2024-07-24 17:39:39,15.0884275,0.0001212,53.2196,335.9959,107.9316,252.1809,6.08e-05,6.8e-06,0.0,0 STARLINK-4060,1 53267U 22086AB  24206.73586988  .00000680  00000-0  60800-4 0  9991,2 53267  53.2196 335.9959 0001212 107.9316 252.1809 15.08842750111557,6917.872,95.437,540.575,538.899,0.0
53267.0,STARLINK-4060,PAYLOAD,2024-07-26 01:27:22,15.08839313,0.000158,53.2182,330.0475,94.6219,265.4954,4.3235e-05,4e-06,0.0,0 STARLINK-4060,1 53267U 22086AB  24208.06067611  .00000400  00000-0  43235-4 0  9999,2 53267  53.2182 330.0475 0001580  94.6219 265.4954 15.08839313111574,6917.882,95.438,540.841,538.654,0.0
53267.0,STARLINK-4060,PAYLOAD,2024-07-26 12:35:04,15.08841774,0.0001455,53.219,327.9695,88.105,272.0109,4.6423e-05,4.51e-06,0.0,0 STARLINK-4060,1 53267U 22086AB  24208.52435426  .00000451  00000-0  46423-4 0  9991,2 53267  53.2190 327.9695 0001455  88.1050 272.0109 15.08841774111822,6917.875,95.437,540.747,538.733,0.0
53267.0,STARLINK-4060,PAYLOAD,2024-07-26 14:10:26,15.08849964,7.58e-05,53.2195,327.6711,109.4966,250.6108,1.8509e-05,7e-08,0.0,0 STARLINK-4060,1 53267U 22086AB  24208.59058682  .00000007  00000-0  18509-4 0  9994,2 53267  53.2195 327.6711 0000758 109.4966 250.6108 15.08849964111652,6917.85,95.437,540.239,539.191,0.0
